ONEWEB-0012             
1 44057U 19010A   24010.46872910  .00007421  00000+0  19375-1 0  9994
2 44057  87.9056  45.6803 0002450 118.5211 241.6167 13.16552151234627
ONEWEB-0010             
1 44058U 19010B   24010.11407289  .00008100  00000+0  21148-1 0  9996
2 44058  87.9048  45.7290 0002645  98.7967 261.3464 13.16550676234622
ONEWEB-0008             
1 44059U 19010C   24010.13941332  .00006625  00000+0  17296-1 0  9990
2 44059  87.9052  45.7246 0001701  92.9494 267.1831 13.16541814234741
ONEWEB-0007             
1 44060U 19010D   24010.22886466  .00000086  00000+0  19497-3 0  9990
2 44060  87.8991  76.1525 0002067 112.5465 247.5884 13.15548840234492
ONEWEB-0006             
1 44061U 19010E   24010.21460243 -.00000062  00000+0 -19985-3 0  9999
2 44061  87.8979  76.1450 0002110 105.1038 255.0325 13.15549198234546
ONEWEB-0011             
1 44062U 19010F   24010.20272183 -.00000054  00000+0 -17627-3 0  9995
2 44062  87.8985  76.1527 0002036  95.5175 264.6188 13.15547969234536
ONEWEB-0013             
1 45131U 20008A   24010.09997502 -.00000670  00000+0 -19851-2 0  9992
2 45131  87.8554 231.5382 0001001 126.5806 233.5413 13.09363189189717
ONEWEB-0017             
1 45132U 20008B   24010.12252769 -.00000627  00000+0 -18324-2 0  9992
2 45132  87.8895 212.8642 0001594  85.3138 274.8171 13.10368078191518
